1 20305U 89086A   91349.96687372  .00000043  00000-0  99999-4 0  4862
2 20305  82.5553 192.3207 0016956  47.6072 312.6481 13.15971698102869
1 20305U          91349.96687372 0.00000043  00000+0  99999-4 0  4860
2 20305  82.5553 192.3207 0016956  47.6072 312.6481 13.15971698102869
1 20305U 89086A   91349.96687372  .00000043  00000-0  99999-4 0  4862
2 20305  82.5553 192.3207 0016956  47.6072 312.6481 13.15971698102869
1 20305U 89086A   91350.04290457  .00000053      0+0  00000-4 0 48602
2 20305  82.5555 192.2679 0016963  47.2528 313.0017 13.15971690102876
1 20305U 89086A   91351.03128651  .00000053      0+0  00000-4 0 48608
2 20305  82.5553 191.5705 0016970  45.2709 314.9790 13.15971691103008
1 20305U 89086A   91352.01967064  .00000053      0+0  00000-4 0 48606
2 20305  82.5550 190.8731 0017007  43.6185 316.6276 13.15971590103138
1 20305U 89086A   91353.08408317  .00000053      0+0  00000-4 0 48605
2 20305  82.5546 190.1211 0017151  41.5976 318.6446 13.15971506103277
1 20305U 89086A   91354.07246792  .00000043  00000-0  99999-4 0  4878
2 20305  82.5545 189.4241 0017200  39.3628 320.8740 13.15971487103409
1 20305U 89086A   91354.07246920  .00000053      0+0  00000-4 0 48605
2 20305  82.5545 189.4241 0017200  39.3627 320.8740 13.15971487103408
1 20305U 89086A   91355.06085213  .00000053      0+0  00000-4 0 48702
2 20305  82.5543 188.7266 0017206  36.8544 323.3756 13.15971509103535
1 20305U 89086A   91356.27732138  .00000053      0+0  00000-4 0 48701
2 20305  82.5544 187.8689 0017191  33.8522 326.3693 13.15971622103697
1 20305U 89086A   91358.02599435  .00000053      0+0  00000-4 0 48707
2 20305  82.5521 186.6370 0016884  31.1533 329.0586 13.15971776103924
1 20305U 89086A   91358.93834529  .00000043  00000-0  99999-4 0  4889
2 20305  82.5514 185.9940 0016774  27.8621 332.3395 13.15972043104046
1 20305U          91358.93834529 0.00000043  00000+0  99999-4 0  4887
2 20305  82.5514 185.9940 0016774  27.8621 332.3395 13.15972043104046
1 20305U 89086A   91359.01437467  .00000053      0+0  00000-4 0 48804
2 20305  82.5512 185.9399 0016804  27.6305 332.5715 13.15972088104051
1 20305U 89086A   91360.00275611  .00000053      0+0  00000-4 0 48806
2 20305  82.5511 185.2425 0016765  25.0340 335.1592 13.15972180104189
1 20305U 89086A   91360.91510856  .00000043  00000-0  99999-4 0  4895
2 20305  82.5510 184.5986 0016752  22.8388 337.3475 13.15972235104304
1 20305U          91360.91510856 0.00000043  00000+0  99999-4 0  4893
2 20305  82.5510 184.5986 0016752  22.8388 337.3475 13.15972235104304
1 20305U 89086A   91360.99113668  .00000053      0+0  00000-4 0 48908
2 20305  82.5513 184.5452 0016746  22.6609 337.5248 13.15972240104319
1 20305U 89086A   91361.97951998  .00000053      0+0  00000-4 0 48903
2 20305  82.5515 183.8480 0016685  20.4667 339.7118 13.15972052104441
1 20305U 89086A   91363.04393422  .00000053      0+0  00000-4 0 48905
2 20305  82.5488 183.0945 0016716  17.9586 342.2103 13.15971950104588
1 20305U 89086A   91364.41246626  .00000043  00000-0  99999-4 0  4907
2 20305  82.5502 182.1325 0017271  13.1484 347.0082 13.15971546104769
1 20305U          91364.41246626 0.00000043  00000+0  99999-4 0  4905
2 20305  82.5502 182.1325 0017271  13.1484 347.0082 13.15971546104769
1 20305U 89086A   91364.41246627  .00000053      0+0  00000-4 0 49003
2 20305  82.5502 182.1324 0017271  13.1484 347.0082 13.15971547104769
1 20305U 89086A   91365.47687674  .00000053      0+0  00000-4 0 49001
2 20305  82.5494 181.3802 0017231  10.5756 349.5725 13.15971571104904
1 20305U 89086A   92001.00908370  .00000053      0+0  00000-4 0 49007
2 20305  82.5499 181.0052 0017194   9.2973 350.8466 13.15971628104974
1 20305U 89086A   92001.99746337  .00000053      0+0  00000-4 0 49008
2 20305  82.5515 180.3094 0017032   5.9686 354.1640 13.15971973105106
1 20305U          92002.52966881 0.00000043  00000+0  99999-4 0  4910
2 20305  82.5515 179.9340 0017031   4.6362 355.4914 13.15972014105172
1 20305U 89086A   92002.52966881  .00000043  00000-0  99999-4 0  4912
2 20305  82.5515 179.9340 0017031   4.6362 355.4914 13.15972014105172
1 20305U 89086A   92002.98584501  .00000052      0+0  00000-4 0 49101
2 20305  82.5529 179.6141 0017001   3.8225 356.3037 13.15972155105238
1 20305U 89086A   92004.50643143  .00000052      0+0  00000-4 0 49109
2 20305  82.5535 178.5433 0016994 359.7653   0.3477 13.15972385105436
1 20305U 89086A   92004.96260706  .00000053      0+0  00000-4 0 49100
2 20305  82.5536 178.2219 0017003 358.6555   1.4519 13.15972434105497
1 20305U 89086A   92005.95098785  .00000053      0+0  00000-4 0 49106
2 20305  82.5533 177.5246 0016983 356.1551   3.9441 13.15972609105621
1 20305U          92006.93936891 0.00000043  00000+0  99999-4 0  4928
2 20305  82.5528 176.8268 0016989 353.6809   6.4096 13.15972690105753
1 20305U 89086A   92006.93936894  .00000053      0+0  00000-4 0 49208
2 20305  82.5528 176.8268 0016986 353.6888   6.4018 13.15972692105753
1 20305U 89086A   92007.92775032  .00000043  00000-0  99999-4 0  4939
2 20305  82.5523 176.1286 0016948 351.2181   8.8641 13.15972720105883
1 20305U          92007.92775032 0.00000043  00000+0  99999-4 0  4937
2 20305  82.5523 176.1286 0016948 351.2181   8.8641 13.15972720105883
1 20305U 89086A   92008.00377966  .00000053      0+0  00000-4 0 49308
2 20305  82.5518 176.0743 0016999 350.9428   9.1376 13.15972690105896
1 20305U 89086A   92008.99216156  .00000053      0+0  00000-4 0 49309
2 20305  82.5512 175.3761 0017001 348.3561  11.7159 13.15972660106027
1 20305U          92009.90451444 0.00000043  00000+0  99999-4 0  4946
2 20305  82.5510 174.7327 0016980 346.2334  13.8322 13.15972619106148
1 20305U 89086A   92009.90451445  .00000043  00000-0  99999-4 0  4949
2 20305  82.5510 174.7327 0016980 346.2334  13.8322 13.15972619106148
1 20305U 89086A   92010.13260247  .00000053      0+0  00000-4 0 49409
2 20305  82.5510 174.5717 0016982 345.6696  14.3941 13.15972636106170
1 20305U 89086A   92010.96892545  .00000053      0+0  00000-4 0 49402
2 20305  82.5511 173.9819 0016915 343.6003  16.4568 13.15972659106288
1 20305U 89086A   92011.88127770  .00000053      0+0  00000-4 0 49405
2 20305  82.5510 173.3379 0016852 341.4032  18.6473 13.15972689106406
1 20305U 89086A   92012.94568821  .00000053      0+0  00000-4 0 49409
2 20305  82.5510 172.5869 0016800 338.7962  21.2462 13.15972785106545
1 20305U 89086A   92014.46627390  .00000053      0+0  00000-4 0 49405
2 20305  82.5515 171.5148 0016776 334.9182  25.1125 13.15973023106740
1 20305U 89086A   92014.92244800  .00000052      0+0  00000-4 0 49406
2 20305  82.5520 171.1933 0016289 334.5895  25.4425 13.15973283106801
1 20305U 89086A   92016.36700387  .00000052      0+0  00000-4 0 49403
2 20305  82.5522 170.1741 0016278 330.8684  29.1545 13.15973535106996
1 20305U 89086A   92016.89920948  .00000052      0+0  00000-4 0 49408
2 20305  82.5483 169.7941 0015725 329.9445  30.0772 13.15973188107064
1 20305U 89086A   92018.34376656  .00000052      0+0  00000-4 0 49401
2 20305  82.5486 168.7751 0015711 326.2991  33.7125 13.15973278107259
1 20305U 89086A   92018.87597206  .00000053      0+0  00000-4 0 49406
2 20305  82.5496 168.4009 0015757 324.7221  35.2854 13.15973309107321
1 20305U 89086A   92020.39656018  .00000053      0+0  00000-4 0 49403
2 20305  82.5490 167.3264 0015640 320.8764  39.1223 13.15973198107527
1 20305U 89086A   92020.85273629  .00000052      0+0  00000-4 0 49406
2 20305  82.5488 167.0042 0015703 319.6713  40.3240 13.15973205107583
1 20305U          92021.84111880 0.00000043  00000+0  99999-4 0  4951
2 20305  82.5486 166.3066 0015588 317.3745  42.6165 13.15973153107718
1 20305U 89086A   92021.84111880  .00000043  00000-0  99999-4 0  4953
2 20305  82.5486 166.3066 0015588 317.3745  42.6165 13.15973153107718
1 20305U 89086A   92022.37332421  .00000052      0+0  00000-4 0 49502
2 20305  82.5485 165.9308 0015553 316.0414  43.9466 13.15973172107788
1 20305U 89086A   92023.36170571  .00000053      0+0  00000-4 0 49509
2 20305  82.5498 165.2350 0015738 313.1979  46.7934 13.15973539107914
1 20305U 89086A   92024.35008447  .00000053      0+0  00000-4 0 49501
2 20305  82.5496 164.5360 0015742 310.9295  49.0573 13.15973922108042
1 20305U 89086A   92025.33846182  .00000052      0+0  00000-4 0 49505
2 20305  82.5514 163.8428 0015850 308.3102  51.6628 13.15974267108175
1 20305U          92025.49051921 0.00000043  00000+0  99999-4 0  4966
2 20305  82.5524 163.7374 0015834 307.7593  52.2095 13.15974364108199
1 20305U 89086A   92025.49051921  .00000043  00000-0  99999-4 0  4968
2 20305  82.5524 163.7374 0015834 307.7593  52.2095 13.15974364108199
1 20305U 89086A   92025.79463642  .00000053      0+0  00000-4 0 49603
2 20305  82.5526 163.5230 0015734 307.1226  52.8466 13.15974415108236
1 20305U 89086A   92027.39124615  .00000043  00000-0  99999-4 0  4971
2 20305  82.5501 162.3903 0015308 298.8547  61.1687 13.15976737108442
1 20305U          92027.39124615 0.00000043  00000+0  99999-4 0  4979
2 20305  82.5501 162.3903 0015308 298.8547  61.1687 13.15976737108442
1 20305U 89086A   92027.39124738  .00000053      0+0  00000-4 0 49601
2 20305  82.5563 162.4044 0015715 302.4393  57.5258 13.15975150108441
1 20305U 89086A   92027.84740722  .00000053      0+0  00000-4 0 49709
2 20305  82.5501 162.0682 0015004 297.4927  62.4690 13.15976849108502
1 20305U          92028.83578098 0.00000043  00000+0  99999-4 0  4988
2 20305  82.5520 161.3773 0015045 295.1722  64.7857 13.15977669108634
1 20305U 89086A   92028.83578098  .00000043  00000-0  99999-4 0  4980
2 20305  82.5520 161.3773 0015045 295.1722  64.7857 13.15977669108634
1 20305U 89086A   92029.29195543  .00000052      0+0  00000-4 0 49805
2 20305  82.5506 161.0541 0015288 293.9200  66.0409 13.15977928108696
1 20305U 89086A   92030.28033034  .00000053      0+0  00000-4 0 49803
2 20305  82.5501 160.3569 0015030 290.9782  68.9811 13.15978407108826
